NORAD_CAT_ID,OBJECT_NAME,OBJECT_TYPE,EPOCH,MEAN_MOTION,ECCENTRICITY,INCLINATION,RA_OF_ASC_NODE,ARG_OF_PERICENTER,MEAN_ANOMALY,BSTAR,MEAN_MOTION_DOT,MEAN_MOTION_DDOT,TLE_LINE0,TLE_LINE1,TLE_LINE2,SEMIMAJOR_AXIS,PERIOD,APOGEE,PERIGEE,DECAYED
56489.0,STARLINK-5923,PAYLOAD,2024-06-16 13:15:41,14.9833239,0.0003062,69.9996,255.8003,269.684,90.3968,5.4284e-05,5.55e-06,0.0,0 STARLINK-5923,1 56489U 23064AT  24168.55256819  .00000555  00000-0  54284-4 0  9991,2 56489  69.9996 255.8003 0003062 269.6840  90.3968 14.98332390 61690,6950.186,96.107,574.179,569.922,0.0
56489.0,STARLINK-5923,PAYLOAD,2024-06-16 16:27:57,14.983332,0.0003063,69.9996,255.4637,269.698,90.3828,5.9631e-05,6.19e-06,0.0,0 STARLINK-5923,1 56489U 23064AT  24168.68608725  .00000619  00000-0  59631-4 0  9994,2 56489  69.9996 255.4637 0003063 269.6980  90.3828 14.98333200 61714,6950.183,96.107,574.177,569.919,0.0
56489.0,STARLINK-5923,PAYLOAD,2024-06-17 11:41:35,14.98329469,0.0003025,69.9996,253.444,267.5444,92.5368,-7.0045e-05,-9.29e-06,0.0,0 STARLINK-5923,1 56489U 23064AT  24169.48721143 -.00000929  00000-0 -70045-4 0  9991,2 56489  69.9996 253.4440 0003025 267.5444  92.5368 14.98329469 61832,6950.195,96.107,574.162,569.957,0.0
56489.0,STARLINK-5923,PAYLOAD,2024-06-18 13:19:43,14.98332504,0.0003147,69.9992,250.7504,269.913,90.1669,4.9159e-05,4.94e-06,0.0,0 STARLINK-5923,1 56489U 23064AT  24170.55536606  .00000494  00000-0  49159-4 0  9996,2 56489  69.9992 250.7504 0003147 269.9130  90.1669 14.98332504 62352,6950.185,96.107,574.237,569.863,0.0
56489.0,STARLINK-5923,PAYLOAD,2024-06-18 14:55:51,14.9833162,0.0003174,69.9991,250.582,269.9191,90.1604,3.6839e-05,3.47e-06,0.0,0 STARLINK-5923,1 56489U 23064AT  24170.62212684  .00000347  00000-0  36839-4 0  9999,2 56489  69.9991 250.5820 0003174 269.9191  90.1604 14.98331620 62006,6950.188,96.107,574.259,569.847,0.0
56489.0,STARLINK-5923,PAYLOAD,2024-06-19 05:21:04,14.98325065,0.000319,69.9988,249.0668,269.7147,90.3646,6.8656e-05,7.26e-06,0.0,0 STARLINK-5923,1 56489U 23064AT  24171.22297043  .00000726  00000-0  68656-4 0  9991,2 56489  69.9988 249.0668 0003190 269.7147  90.3646 14.98325065 62455,6950.208,96.107,574.29,569.856,0.0
56489.0,STARLINK-5923,PAYLOAD,2024-06-19 13:21:45,14.98326846,0.0003247,69.9989,248.2257,270.7499,89.3288,4.3875e-05,4.3e-06,0.0,0 STARLINK-5923,1 56489U 23064AT  24171.55677090  .00000430  00000-0  43875-4 0  9999,2 56489  69.9989 248.2257 0003247 270.7499  89.3288 14.98326846 62140,6950.203,96.107,574.324,569.811,0.0
56489.0,STARLINK-5923,PAYLOAD,2024-06-19 14:57:53,14.98327453,0.0003243,69.9989,248.0574,270.7605,89.3182,4.9703e-05,5e-06,0.0,0 STARLINK-5923,1 56489U 23064AT  24171.62353049  .00000500  00000-0  49703-4 0  9996,2 56489  69.9989 248.0574 0003243 270.7605  89.3182 14.98327453 62154,6950.201,96.107,574.32,569.812,0.0
56489.0,STARLINK-5923,PAYLOAD,2024-06-20 05:23:05,14.98330434,0.0003205,69.999,246.5423,270.7959,89.2832,3.3767e-05,3.1e-06,0.0,0 STARLINK-5923,1 56489U 23064AT  24172.22436951  .00000310  00000-0  33767-4 0  9999,2 56489  69.9990 246.5423 0003205 270.7959  89.2832 14.98330434 62606,6950.192,96.107,574.284,569.829,0.0
56489.0,STARLINK-5923,PAYLOAD,2024-06-20 13:23:45,14.98334028,0.0003217,69.9991,245.7006,270.6561,89.4229,3.6765e-05,3.46e-06,0.0,0 STARLINK-5923,1 56489U 23064AT  24172.55816686  .00000346  00000-0  36765-4 0  9992,2 56489  69.9991 245.7006 0003217 270.6561  89.4229 14.98334028 62296,6950.18,96.107,574.281,569.81,0.0
56489.0,STARLINK-5923,PAYLOAD,2024-06-20 14:59:53,14.98334514,0.0003214,69.9991,245.5322,270.6619,89.4172,4.1673e-05,4.04e-06,0.0,0 STARLINK-5923,1 56489U 23064AT  24172.62492627  .00000404  00000-0  41673-4 0  9994,2 56489  69.9991 245.5322 0003214 270.6619  89.4172 14.98334514 62305,6950.179,96.107,574.278,569.81,0.0
56489.0,STARLINK-5923,PAYLOAD,2024-06-21 05:25:06,14.98329959,0.000318,69.9993,244.0172,271.1112,88.9682,5.6021e-05,5.75e-06,0.0,0 STARLINK-5923,1 56489U 23064AT  24173.22576815  .00000575  00000-0  56021-4 0  9995,2 56489  69.9993 244.0172 0003180 271.1112  88.9682 14.98329959 62756,6950.193,96.107,574.268,569.848,0.0
56489.0,STARLINK-5923,PAYLOAD,2024-06-21 13:25:46,14.9833047,0.0003184,69.9993,243.1756,271.1154,88.964,5.7548e-05,5.94e-06,0.0,0 STARLINK-5923,1 56489U 23064AT  24173.55956800  .00000594  00000-0  57548-4 0  9993,2 56489  69.9993 243.1756 0003184 271.1154  88.9640 14.98330470 62444,6950.191,96.107,574.269,569.843,0.0
56489.0,STARLINK-5923,PAYLOAD,2024-06-21 15:01:54,14.98330784,0.0003187,69.9993,243.0073,271.1682,88.9112,5.9552e-05,6.18e-06,0.0,0 STARLINK-5923,1 56489U 23064AT  24173.62632772  .00000618  00000-0  59552-4 0  9994,2 56489  69.9993 243.0073 0003187 271.1682  88.9112 14.98330784 62457,6950.19,96.107,574.27,569.84,0.0
56489.0,STARLINK-5923,PAYLOAD,2024-06-22 05:27:07,14.98331868,0.0003177,69.9993,241.4926,270.3726,89.7069,4.606e-06,-3.8e-07,0.0,0 STARLINK-5923,1 56489U 23064AT  24174.22716800 -.00000038  00000-0  46060-5 0  9994,2 56489  69.9993 241.4926 0003177 270.3726  89.7069 14.98331868 62909,6950.187,96.107,574.26,569.844,0.0
56489.0,STARLINK-5923,PAYLOAD,2024-06-22 13:27:47,14.98330265,0.0003218,69.9993,240.6509,270.5975,89.4815,-1.4606e-05,-2.67e-06,0.0,0 STARLINK-5923,1 56489U 23064AT  24174.56096929 -.00000267  00000-0 -14606-4 0  9999,2 56489  69.9993 240.6509 0003218 270.5975  89.4815 14.98330265 62592,6950.192,96.107,574.294,569.82,0.0
56489.0,STARLINK-5923,PAYLOAD,2024-06-23 05:29:08,14.98330499,0.0003241,69.9992,238.9675,266.5152,93.5636,2.3554e-05,1.88e-06,0.0,0 STARLINK-5923,1 56489U 23064AT  24175.22856731  .00000188  00000-0  23554-4 0  9990,2 56489  69.9992 238.9675 0003241 266.5152  93.5636 14.98330499 63051,6950.191,96.107,574.309,569.804,0.0
56489.0,STARLINK-5923,PAYLOAD,2024-06-23 13:29:48,14.98330216,0.0003263,69.9991,238.1258,266.2304,93.8482,1.7014e-05,1.1e-06,0.0,0 STARLINK-5923,1 56489U 23064AT  24175.56236750  .00000110  00000-0  17014-4 0  9999,2 56489  69.9991 238.1258 0003263 266.2304  93.8482 14.98330216 62743,6950.192,96.107,574.325,569.789,0.0
56489.0,STARLINK-5923,PAYLOAD,2024-06-24 05:31:08,14.98333153,0.0003397,69.9988,236.4423,267.1478,92.9292,6.5621e-05,6.9e-06,0.0,0 STARLINK-5923,1 56489U 23064AT  24176.22996328  .00000690  00000-0  65621-4 0  9997,2 56489  69.9988 236.4423 0003397 267.1478  92.9292 14.98333153 63208,6950.183,96.107,574.409,569.687,0.0
56489.0,STARLINK-5923,PAYLOAD,2024-06-24 13:31:48,14.9833506,0.0003351,69.9989,235.6009,265.4786,94.599,8.415e-05,9.11e-06,0.0,0 STARLINK-5923,1 56489U 23064AT  24176.56376076  .00000911  00000-0  84150-4 0  9990,2 56489  69.9989 235.6009 0003351 265.4786  94.5990 14.98335060 62899,6950.177,96.107,574.371,569.713,0.0
56489.0,STARLINK-5923,PAYLOAD,2024-06-25 05:33:09,14.98328847,0.000321,69.9992,233.9184,262.8004,97.279,2.1942e-05,1.69e-06,0.0,0 STARLINK-5923,1 56489U 23064AT  24177.23136543  .00000169  00000-0  21942-4 0  9993,2 56489  69.9992 233.9184 0003210 262.8004  97.2790 14.98328847 63351,6950.196,96.107,574.292,569.83,0.0
56489.0,STARLINK-5923,PAYLOAD,2024-06-25 13:33:50,14.9832759,0.0003266,69.9992,233.0767,264.3403,95.7383,7.7099e-07,-8.4e-07,0.0,0 STARLINK-5923,1 56489U 23064AT  24177.56516714 -.00000084  00000-0  77099-6 0  9994,2 56489  69.9992 233.0767 0003266 264.3403  95.7383 14.98327590 63041,6950.2,96.107,574.335,569.795,0.0
56489.0,STARLINK-5923,PAYLOAD,2024-06-26 05:35:10,14.98335587,0.0003323,69.999,231.3935,265.8672,94.2108,1.4758e-05,8.3e-07,0.0,0 STARLINK-5923,1 56489U 23064AT  24178.23276086  .00000083  00000-0  14758-4 0  9993,2 56489  69.9990 231.3935 0003323 265.8672  94.2108 14.98335587 63500,6950.176,96.107,574.35,569.731,0.0
56489.0,STARLINK-5923,PAYLOAD,2024-06-26 11:59:42,14.9833666,0.000331,69.9991,230.7202,265.3617,94.7164,2.8094e-05,2.42e-06,0.0,0 STARLINK-5923,1 56489U 23064AT  24178.49979895  .00000242  00000-0  28094-4 0  9994,2 56489  69.9991 230.7202 0003310 265.3617  94.7164 14.98336660 63185,6950.172,96.107,574.338,569.737,0.0
56489.0,STARLINK-5923,PAYLOAD,2024-06-27 12:01:43,14.98328838,0.0002898,70.0003,228.198,241.2105,118.8764,0.00017688,2.018e-05,0.0,0 STARLINK-5923,1 56489U 23064AT  24179.50119880  .00002018  00000-0  17688-3 0  9996,2 56489  70.0003 228.1980 0002898 241.2105 118.8764 14.98328838 63699,6950.196,96.107,574.076,570.047,0.0
56489.0,STARLINK-5923,PAYLOAD,2024-06-27 13:37:50,14.98339479,0.0003002,69.9998,228.0263,253.584,106.4989,0.0003222,3.754e-05,0.0,0 STARLINK-5923,1 56489U 23064AT  24179.56794860  .00003754  00000-0  32220-3 0  9996,2 56489  69.9998 228.0263 0003002 253.5840 106.4989 14.98339479 63709,6950.164,96.106,574.115,569.942,0.0
56489.0,STARLINK-5923,PAYLOAD,2024-06-28 04:03:04,14.98321725,0.0003979,70.002,226.5159,268.4132,91.6572,0.00014588,1.648e-05,0.0,0 STARLINK-5923,1 56489U 23064AT  24180.16880120  .00001648  00000-0  14588-3 0  9996,2 56489  70.0020 226.5159 0003979 268.4132  91.6572 14.98321725 63794,6950.218,96.108,574.849,569.318,0.0
56489.0,STARLINK-5923,PAYLOAD,2024-06-28 12:03:44,14.98330244,0.0003621,69.9992,225.6726,255.8441,104.2316,-3.0552e-05,-4.58e-06,0.0,0 STARLINK-5923,1 56489U 23064AT  24180.50260075 -.00000458  00000-0 -30552-4 0  9995,2 56489  69.9992 225.6726 0003621 255.8441 104.2316 14.98330244 63485,6950.192,96.107,574.574,569.54,0.0
56489.0,STARLINK-5923,PAYLOAD,2024-06-29 04:05:05,14.98334148,0.0003973,69.9979,223.9865,265.7136,94.3569,1.1817e-05,4.8e-07,0.0,0 STARLINK-5923,1 56489U 23064AT  24181.17019747  .00000048  00000-0  11817-4 0  9993,2 56489  69.9979 223.9865 0003973 265.7136  94.3569 14.98334148 63943,6950.18,96.107,574.806,569.284,0.0
56489.0,STARLINK-5923,PAYLOAD,2024-06-29 12:05:44,14.98341597,0.0003792,69.9983,223.1452,264.2086,95.8641,9.708e-05,1.066e-05,0.0,0 STARLINK-5923,1 56489U 23064AT  24181.50398963  .00001066  00000-0  97080-4 0  9997,2 56489  69.9983 223.1452 0003792 264.2086  95.8641 14.98341597 63997,6950.157,96.106,574.658,569.387,0.0
